start=new Date('2022-06-15T00:00:00.000Z').valueOf();
sats=[{"FILE":"3495970","EPHEMERIS_TYPE":"0","MEAN_MOTION_DOT":"0.00000257","REV_AT_EPOCH":"11114","MEAN_MOTION_DDOT":"0.0000000000000","TLE_LINE1":"1 45783U 20038BF  22165.48260277  .00000257  00000-0  36153-4 0  9998","ARG_OF_PERICENTER":"67.8524","GP_ID":"206136605","SITE":"AFETR","ECCENTRICITY":"0.00014850","PERIAPSIS":"546.185","RCS_SIZE":"LARGE","BSTAR":"0.00003615300000","LAUNCH_DATE":"2020-06-13","CENTER_NAME":"EARTH","CLASSIFICATION_TYPE":"U","REF_FRAME":"TEME","SEMIMAJOR_AXIS":"6925.348","PERIOD":"95.592","DECAY_DATE":null,"OBJECT_ID":"2020-038BF","TIME_SYSTEM":"UTC","TLE_LINE2":"2 45783  53.0538 200.7861 0001485  67.8524 292.2622 15.06400091111146","NORAD_CAT_ID":"45783","MEAN_ANOMALY":"292.2622","MEAN_MOTION":"15.06400091","ELEMENT_SET_NO":"999","MEAN_ELEMENT_THEORY":"SGP4","OBJECT_NAME":"STARLINK-1505","APOAPSIS":"548.242","RA_OF_ASC_NODE":"200.7861","EPOCH":"2022-06-14T11:34:56.879328","INCLINATION":"53.0538","COUNTRY_CODE":"US","OBJECT_TYPE":"PAYLOAD"},{"MEAN_ELEMENT_THEORY":"SGP4","ELEMENT_SET_NO":"999","MEAN_MOTION":"15.06400462","MEAN_ANOMALY":"305.4187","NORAD_CAT_ID":"45784","TLE_LINE2":"2 45784  53.0525 199.4038 0001664  54.6958 305.4187 15.06400462111186","TIME_SYSTEM":"UTC","OBJECT_ID":"2020-038BG","DECAY_DATE":null,"PERIOD":"95.592","SEMIMAJOR_AXIS":"6925.347","REF_FRAME":"TEME","OBJECT_TYPE":"PAYLOAD","COUNTRY_CODE":"US","INCLINATION":"53.0525","EPOCH":"2022-06-14T18:55:28.918560","RA_OF_ASC_NODE":"199.4038","APOAPSIS":"548.365","OBJECT_NAME":"STARLINK-1510","SITE":"AFETR","GP_ID":"206166559","TLE_LINE1":"1 45784U 20038BG  22165.78852915  .00000664  00000-0  63461-4 0  9992","ARG_OF_PERICENTER":"54.6958","MEAN_MOTION_DDOT":"0.0000000000000","EPHEMERIS_TYPE":"0","MEAN_MOTION_DOT":"0.00000664","REV_AT_EPOCH":"11118","FILE":"3496199","CLASSIFICATION_TYPE":"U","LAUNCH_DATE":"2020-06-13","CENTER_NAME":"EARTH","BSTAR":"0.00006346100000","RCS_SIZE":"LARGE","PERIAPSIS":"546.060","ECCENTRICITY":"0.00016640"},{"BSTAR":"0.00022738000000","CLASSIFICATION_TYPE":"U","CENTER_NAME":"EARTH","LAUNCH_DATE":"2020-06-13","ECCENTRICITY":"0.00018510","RCS_SIZE":"LARGE","PERIAPSIS":"545.927","GP_ID":"206135604","TLE_LINE1":"1 45785U 20038BH  22165.50472645  .00003107  00000-0  22738-3 0  9997","ARG_OF_PERICENTER":"51.4343","MEAN_MOTION_DDOT":"0.0000000000000","SITE":"AFETR","FILE":"3495970","REV_AT_EPOCH":"11114","MEAN_MOTION_DOT":"0.00003107","EPHEMERIS_TYPE":"0","INCLINATION":"53.0553","OBJECT_TYPE":"PAYLOAD","COUNTRY_CODE":"US","RA_OF_ASC_NODE":"200.6814","APOAPSIS":"548.491","OBJECT_NAME":"STARLINK-1512","EPOCH":"2022-06-14T12:06:48.365280","MEAN_MOTION":"15.06401423","MEAN_ANOMALY":"308.6812","NORAD_CAT_ID":"45785","TLE_LINE2":"2 45785  53.0553 200.6814 0001851  51.4343 308.6812 15.06401423111140","TIME_SYSTEM":"UTC","MEAN_ELEMENT_THEORY":"SGP4","ELEMENT_SET_NO":"999","PERIOD":"95.592","SEMIMAJOR_AXIS":"6925.344","REF_FRAME":"TEME","OBJECT_ID":"2020-038BH","DECAY_DATE":null},{"MEAN_MOTION_DDOT":"0.0000000000000","TLE_LINE1":"1 45786U 20038BJ  22165.42362520  .00000289  00000-0  38282-4 0  9999","ARG_OF_PERICENTER":"52.3516","GP_ID":"206168056","SITE":"AFETR","FILE":"3496199","REV_AT_EPOCH":"11113","MEAN_MOTION_DOT":"0.00000289","EPHEMERIS_TYPE":"0","BSTAR":"0.00003828200000","LAUNCH_DATE":"2020-06-13","CENTER_NAME":"EARTH","CLASSIFICATION_TYPE":"U","ECCENTRICITY":"0.00016950","PERIAPSIS":"546.032","RCS_SIZE":"LARGE","TIME_SYSTEM":"UTC","TLE_LINE2":"2 45786  53.0552 201.0590 0001695  52.3516 307.7627 15.06402456111134","NORAD_CAT_ID":"45786","MEAN_ANOMALY":"307.7627","MEAN_MOTION":"15.06402456","ELEMENT_SET_NO":"999","MEAN_ELEMENT_THEORY":"SGP4","REF_FRAME":"TEME","SEMIMAJOR_AXIS":"6925.341","PERIOD":"95.592","DECAY_DATE":null,"OBJECT_ID":"2020-038BJ","INCLINATION":"53.0552","COUNTRY_CODE":"US","OBJECT_TYPE":"PAYLOAD","OBJECT_NAME":"STARLINK-1513","APOAPSIS":"548.380","RA_OF_ASC_NODE":"201.0590","EPOCH":"2022-06-14T10:10:01.217280"},{"OBJECT_TYPE":"PAYLOAD","COUNTRY_CODE":"US","INCLINATION":"53.0548","EPOCH":"2022-06-14T11:56:11.116032","OBJECT_NAME":"STARLINK-1517","RA_OF_ASC_NODE":"200.7269","APOAPSIS":"548.087","ELEMENT_SET_NO":"999","MEAN_ELEMENT_THEORY":"SGP4","NORAD_CAT_ID":"45787","TIME_SYSTEM":"UTC","TLE_LINE2":"2 45787  53.0548 200.7269 0001229  37.8666 322.2409 15.06392761112066","MEAN_MOTION":"15.06392761","MEAN_ANOMALY":"322.2409","OBJECT_ID":"2020-038BK","DECAY_DATE":null,"SEMIMAJOR_AXIS":"6925.371","REF_FRAME":"TEME","PERIOD":"95.593","CLASSIFICATION_TYPE":"U","LAUNCH_DATE":"2020-06-13","CENTER_NAME":"EARTH","BSTAR":"0.00010041000000","PERIAPSIS":"546.385","RCS_SIZE":"LARGE","ECCENTRICITY":"0.00012290","SITE":"AFETR","MEAN_MOTION_DDOT":"0.0000000000000","TLE_LINE1":"1 45787U 20038BK  22165.49735088  .00001214  00000-0  10041-3 0  9991","ARG_OF_PERICENTER":"37.8666","GP_ID":"206145164","MEAN_MOTION_DOT":"0.00001214","EPHEMERIS_TYPE":"0","REV_AT_EPOCH":"11206","FILE":"3496076"},{"PERIAPSIS":"545.960","RCS_SIZE":"LARGE","ECCENTRICITY":"0.00018340","CENTER_NAME":"EARTH","LAUNCH_DATE":"2020-08-07","CLASSIFICATION_TYPE":"U","BSTAR":"-0.00005672100000","REV_AT_EPOCH":"10328","MEAN_MOTION_DOT":"-0.00001126","EPHEMERIS_TYPE":"0","FILE":"3496199","SITE":"AFETR","MEAN_MOTION_DDOT":"0.0000000000000","TLE_LINE1":"1 46027U 20055A   22165.60331680 -.00001126  00000-0 -56721-4 0  9991","ARG_OF_PERICENTER":"63.1576","GP_ID":"206166833","EPOCH":"2022-06-14T14:28:46.571520","OBJECT_NAME":"STARLINK-1522","APOAPSIS":"548.500","RA_OF_ASC_NODE":"130.2297","COUNTRY_CODE":"US","OBJECT_TYPE":"PAYLOAD","INCLINATION":"53.0544","DECAY_DATE":null,"OBJECT_ID":"2020-055A","REF_FRAME":"TEME","SEMIMAJOR_AXIS":"6925.365","PERIOD":"95.592","ELEMENT_SET_NO":"999","MEAN_ELEMENT_THEORY":"SGP4","TLE_LINE2":"2 46027  53.0544 130.2297 0001834  63.1576 296.9600 15.06394610103281","TIME_SYSTEM":"UTC","NORAD_CAT_ID":"46027","MEAN_ANOMALY":"296.9600","MEAN_MOTION":"15.06394610"},{"MEAN_MOTION_DDOT":"0.0000000000000","TLE_LINE1":"1 46028U 20055B   22165.81709657  .00001175  00000-0  97813-4 0  9997","ARG_OF_PERICENTER":"65.5754","GP_ID":"206144369","SITE":"AFETR","FILE":"3496056","REV_AT_EPOCH":"10281","MEAN_MOTION_DOT":"0.00001175","EPHEMERIS_TYPE":"0","BSTAR":"0.00009781300000","CLASSIFICATION_TYPE":"U","LAUNCH_DATE":"2020-08-07","CENTER_NAME":"EARTH","ECCENTRICITY":"0.00018000","PERIAPSIS":"545.975","RCS_SIZE":"LARGE","NORAD_CAT_ID":"46028","TLE_LINE2":"2 46028  53.0539 129.2682 0001800  65.5754 294.5423 15.06397290102811","TIME_SYSTEM":"UTC","MEAN_MOTION":"15.06397290","MEAN_ANOMALY":"294.5423","ELEMENT_SET_NO":"999","MEAN_ELEMENT_THEORY":"SGP4","SEMIMAJOR_AXIS":"6925.357","REF_FRAME":"TEME","PERIOD":"95.592","OBJECT_ID":"2020-055B","DECAY_DATE":null,"INCLINATION":"53.0539","OBJECT_TYPE":"PAYLOAD","COUNTRY_CODE":"US","OBJECT_NAME":"STARLINK-1523","RA_OF_ASC_NODE":"129.2682","APOAPSIS":"548.468","EPOCH":"2022-06-14T19:36:37.143648"},{"BSTAR":"0.00008845600000","LAUNCH_DATE":"2020-08-07","CENTER_NAME":"EARTH","CLASSIFICATION_TYPE":"U","ECCENTRICITY":"0.00018350","RCS_SIZE":"LARGE","PERIAPSIS":"545.925","ARG_OF_PERICENTER":"63.9459","TLE_LINE1":"1 46029U 20055C   22165.61068456  .00001036  00000-0  88456-4 0  9990","GP_ID":"206167834","MEAN_MOTION_DDOT":"0.0000000000000","SITE":"AFETR","FILE":"3496199","EPHEMERIS_TYPE":"0","MEAN_MOTION_DOT":"0.00001036","REV_AT_EPOCH":"10329","INCLINATION":"53.0535","COUNTRY_CODE":"US","OBJECT_TYPE":"PAYLOAD","APOAPSIS":"548.466","RA_OF_ASC_NODE":"130.2037","OBJECT_NAME":"STARLINK-1526","EPOCH":"2022-06-14T14:39:23.145984","MEAN_ANOMALY":"296.1718","MEAN_MOTION":"15.06405878","TIME_SYSTEM":"UTC","TLE_LINE2":"2 46029  53.0535 130.2037 0001835  63.9459 296.1718 15.06405878103296","NORAD_CAT_ID":"46029","MEAN_ELEMENT_THEORY":"SGP4","ELEMENT_SET_NO":"999","PERIOD":"95.592","REF_FRAME":"TEME","SEMIMAJOR_AXIS":"6925.331","DECAY_DATE":null,"OBJECT_ID":"2020-055C"},{"ECCENTRICITY":"0.00019550","PERIAPSIS":"545.855","RCS_SIZE":"LARGE","BSTAR":"0.00005856600000","CENTER_NAME":"EARTH","LAUNCH_DATE":"2020-08-07","CLASSIFICATION_TYPE":"U","FILE":"3496199","REV_AT_EPOCH":"10329","MEAN_MOTION_DOT":"0.00000591","EPHEMERIS_TYPE":"0","MEAN_MOTION_DDOT":"0.0000000000000","TLE_LINE1":"1 46030U 20055D   22165.89450304  .00000591  00000-0  58566-4 0  9993","GP_ID":"206167581","ARG_OF_PERICENTER":"61.0048","SITE":"AFETR","OBJECT_NAME":"STARLINK-1534","APOAPSIS":"548.563","RA_OF_ASC_NODE":"128.9349","EPOCH":"2022-06-14T21:28:05.062656","INCLINATION":"53.0553","COUNTRY_CODE":"US","OBJECT_TYPE":"PAYLOAD","REF_FRAME":"TEME","SEMIMAJOR_AXIS":"6925.344","PERIOD":"95.592","DECAY_DATE":null,"OBJECT_ID":"2020-055D","TIME_SYSTEM":"UTC","TLE_LINE2":"2 46030  53.0553 128.9349 0001955  61.0048 299.1136 15.06401577103293","NORAD_CAT_ID":"46030","MEAN_MOTION":"15.06401577","MEAN_ANOMALY":"299.1136","ELEMENT_SET_NO":"999","MEAN_ELEMENT_THEORY":"SGP4"},{"ELEMENT_SET_NO":"999","MEAN_ELEMENT_THEORY":"SGP4","NORAD_CAT_ID":"46031","TLE_LINE2":"2 46031  53.0537 130.1066 0001949  67.8731 292.2465 15.06397388103285","TIME_SYSTEM":"UTC","MEAN_MOTION":"15.06397388","MEAN_ANOMALY":"292.2465","OBJECT_ID":"2020-055E","DECAY_DATE":null,"SEMIMAJOR_AXIS":"6925.357","REF_FRAME":"TEME","PERIOD":"95.592","OBJECT_TYPE":"PAYLOAD","COUNTRY_CODE":"US","INCLINATION":"53.0537","EPOCH":"2022-06-14T15:11:14.358048","OBJECT_NAME":"STARLINK-1544","RA_OF_ASC_NODE":"130.1066","APOAPSIS":"548.571","SITE":"AFETR","MEAN_MOTION_DDOT":"0.0000000000000","TLE_LINE1":"1 46031U 20055E   22165.63280507 -.00000166  00000-0  77475-5 0  9992","ARG_OF_PERICENTER":"67.8731","GP_ID":"206166334","EPHEMERIS_TYPE":"0","MEAN_MOTION_DOT":"-0.00000166","REV_AT_EPOCH":"10328","FILE":"3496199","CLASSIFICATION_TYPE":"U","CENTER_NAME":"EARTH","LAUNCH_DATE":"2020-08-07","BSTAR":"0.00000774750000","PERIAPSIS":"545.872","RCS_SIZE":"LARGE","ECCENTRICITY":"0.00019490"}];
